NORAD_CAT_ID,OBJECT_NAME,OBJECT_TYPE,EPOCH,MEAN_MOTION,ECCENTRICITY,INCLINATION,RA_OF_ASC_NODE,ARG_OF_PERICENTER,MEAN_ANOMALY,BSTAR,MEAN_MOTION_DOT,MEAN_MOTION_DDOT,TLE_LINE0,TLE_LINE1,TLE_LINE2,SEMIMAJOR_AXIS,PERIOD,APOGEE,PERIGEE,DECAYED
53970.0,STARLINK-4567,PAYLOAD,2024-07-01 04:55:52,15.08878784,0.000145,53.216,106.6677,71.2206,288.8943,0.0016744,0.00026489,0.0,0 STARLINK-4567,1 53970U 22125G   24183.20546595  .00026489  00000-0  16744-2 0  9993,2 53970  53.2160 106.6677 0001450  71.2206 288.8943 15.08878784 96399,6917.762,95.435,540.63,538.624,0.0
53970.0,STARLINK-4567,PAYLOAD,2024-07-01 22:25:06,15.08857276,0.0001219,53.2164,103.3972,81.5147,278.5983,0.0014785,0.00023332,0.0,0 STARLINK-4567,1 53970U 22125G   24183.93410677  .00023332  00000-0  14785-2 0  9991,2 53970  53.2164 103.3972 0001219  81.5147 278.5983 15.08857276 96445,6917.828,95.436,540.536,538.849,0.0
53970.0,STARLINK-4567,PAYLOAD,2024-07-02 01:35:52,15.08858227,0.0001197,53.2165,102.802,88.0337,272.0792,0.0015935,0.00025176,0.0,0 STARLINK-4567,1 53970U 22125G   24184.06658538  .00025176  00000-0  15935-2 0  9992,2 53970  53.2165 102.8020 0001197  88.0337 272.0792 15.08858227 96525,6917.825,95.436,540.518,538.862,0.0
53970.0,STARLINK-4567,PAYLOAD,2024-07-02 11:08:11,15.08839594,0.0001341,53.2164,101.018,83.7852,276.3293,0.0024705,0.00039249,0.0,0 STARLINK-4567,1 53970U 22125G   24184.46402434  .00039249  00000-0  24705-2 0  9999,2 53970  53.2164 101.0180 0001341  83.7852 276.3293 15.08839594 96582,6917.882,95.438,540.674,538.819,0.0
53970.0,STARLINK-4567,PAYLOAD,2024-07-02 19:05:07,15.08822182,0.0001329,53.2164,99.5305,83.2729,276.8414,0.00092571,0.00014468,0.0,0 STARLINK-4567,1 53970U 22125G   24184.79522986  .00014468  00000-0  92571-3 0  9993,2 53970  53.2164  99.5305 0001329  83.2729 276.8414 15.08822182 96637,6917.935,95.439,540.719,538.88,0.0
53970.0,STARLINK-4567,PAYLOAD,2024-07-02 22:15:54,15.08835107,0.0001312,53.2165,98.9368,81.8921,278.222,0.00085851,0.000134,0.0,0 STARLINK-4567,1 53970U 22125G   24184.92770993  .00013400  00000-0  85851-3 0  9999,2 53970  53.2165  98.9368 0001312  81.8921 278.2220 15.08835107 96597,6917.895,95.438,540.668,538.853,0.0
53970.0,STARLINK-4567,PAYLOAD,2024-07-03 22:06:41,15.08840813,0.0001347,53.2166,94.4743,81.7617,278.3528,0.00037297,5.653e-05,0.0,0 STARLINK-4567,1 53970U 22125G   24185.92131157  .00005653  00000-0  37297-3 0  9995,2 53970  53.2166  94.4743 0001347  81.7617 278.3528 15.08840813 96744,6917.878,95.438,540.675,538.811,0.0
53970.0,STARLINK-4567,PAYLOAD,2024-07-04 02:52:50,15.08853323,0.0001378,53.2171,93.5846,85.4959,274.619,0.00067728,0.00010511,0.0,0 STARLINK-4567,1 53970U 22125G   24186.12002896  .00010511  00000-0  67728-3 0  9996,2 53970  53.2171  93.5846 0001378  85.4959 274.6190 15.08853323 96832,6917.84,95.437,540.658,538.751,0.0
53970.0,STARLINK-4567,PAYLOAD,2024-07-04 10:49:46,15.08843512,0.0001477,53.2152,92.0968,92.8776,267.2385,0.00028146,4.195e-05,0.0,0 STARLINK-4567,1 53970U 22125G   24186.45123052  .00004195  00000-0  28146-3 0  9992,2 53970  53.2152  92.0968 0001477  92.8776 267.2385 15.08843512 96887,6917.87,95.437,540.756,538.713,0.0
53970.0,STARLINK-4567,PAYLOAD,2024-07-04 21:57:28,15.08843507,0.0001666,53.2165,90.017,104.9858,255.1319,0.00027404,4.076e-05,0.0,0 STARLINK-4567,1 53970U 22125G   24186.91490998  .00004076  00000-0  27404-3 0  9993,2 53970  53.2165  90.0170 0001666 104.9858 255.1319 15.08843507 96898,6917.87,95.437,540.887,538.582,0.0
53970.0,STARLINK-4567,PAYLOAD,2024-07-05 10:40:33,15.08839391,0.000185,53.2189,87.6352,86.6401,273.4802,6.4925e-05,7.45e-06,0.0,0 STARLINK-4567,1 53970U 22125G   24187.44483299  .00000745  00000-0  64925-4 0  9997,2 53970  53.2189  87.6352 0001850  86.6401 273.4802 15.08839391 97036,6917.882,95.438,541.027,538.467,0.0
53970.0,STARLINK-4567,PAYLOAD,2024-07-05 21:48:15,15.08841294,0.0001579,53.2189,85.5558,87.8485,272.2688,0.00024812,3.663e-05,0.0,0 STARLINK-4567,1 53970U 22125G   24187.90851254  .00003663  00000-0  24812-3 0  9990,2 53970  53.2189  85.5558 0001579  87.8485 272.2688 15.08841294 97049,6917.876,95.437,540.834,538.649,0.0
53970.0,STARLINK-4567,PAYLOAD,2024-07-06 10:31:20,15.08841069,0.0001175,53.2157,83.176,96.5432,263.5694,0.00022212,3.249e-05,0.0,0 STARLINK-4567,1 53970U 22125G   24188.43843237  .00003249  00000-0  22212-3 0  9993,2 53970  53.2157  83.1760 0001175  96.5432 263.5694 15.08841069 97123,6917.877,95.437,540.555,538.929,0.0
53970.0,STARLINK-4567,PAYLOAD,2024-07-06 21:39:02,15.08837142,0.000122,53.2159,81.0951,93.8986,266.2146,0.00016724,2.375e-05,0.0,0 STARLINK-4567,1 53970U 22125G   24188.90211501  .00002375  00000-0  16724-3 0  9998,2 53970  53.2159  81.0951 0001220  93.8986 266.2146 15.08837142 97195,6917.889,95.438,540.598,538.91,0.0
53970.0,STARLINK-4567,PAYLOAD,2024-07-06 23:14:25,15.08840165,0.000131,53.2163,80.7971,100.3199,259.7941,0.00017422,2.486e-05,0.0,0 STARLINK-4567,1 53970U 22125G   24188.96835433  .00002486  00000-0  17422-3 0  9999,2 53970  53.2163  80.7971 0001310 100.3199 259.7941 15.08840165 97265,6917.88,95.438,540.651,538.839,0.0
53970.0,STARLINK-4567,PAYLOAD,2024-07-07 23:05:12,15.0884335,0.0001423,53.2173,76.3365,100.0308,260.0845,0.00055264,8.519e-05,0.0,0 STARLINK-4567,1 53970U 22125G   24189.96195521  .00008519  00000-0  55264-3 0  9996,2 53970  53.2173  76.3365 0001423 100.0308 260.0845 15.08843350 97355,6917.87,95.437,540.72,538.751,0.0
53970.0,STARLINK-4567,PAYLOAD,2024-07-08 21:20:36,15.0884097,0.0001541,53.2179,72.171,103.8312,256.2852,8.1703e-05,1.013e-05,0.0,0 STARLINK-4567,1 53970U 22125G   24190.88931391  .00001013  00000-0  81703-4 0  9992,2 53970  53.2179  72.1710 0001541 103.8312 256.2852 15.08840970 97558,6917.877,95.437,540.808,538.676,0.0
53970.0,STARLINK-4567,PAYLOAD,2024-07-08 22:55:59,15.08841784,0.0001411,53.218,71.876,98.3746,261.7406,6.5844e-05,7.6e-06,0.0,0 STARLINK-4567,1 53970U 22125G   24190.95555376  .00000760  00000-0  65844-4 0  9991,2 53970  53.2180  71.8760 0001411  98.3746 261.7406 15.08841784 97501,6917.875,95.437,540.716,538.764,0.0
53970.0,STARLINK-4567,PAYLOAD,2024-07-09 21:11:24,15.08837816,0.0001391,53.2179,67.7177,93.6168,266.4983,-3.9376e-05,-9.15e-06,0.0,0 STARLINK-4567,1 53970U 22125G   24191.88291772 -.00000915  00000-0 -39376-4 0  9996,2 53970  53.2179  67.7177 0001391  93.6168 266.4983 15.08837816 97703,6917.887,95.438,540.714,538.79,0.0
53970.0,STARLINK-4567,PAYLOAD,2024-07-09 22:46:47,15.08839027,0.0001443,53.2182,67.4193,97.4908,262.6248,-9.981e-06,-4.47e-06,0.0,0 STARLINK-4567,1 53970U 22125G   24191.94915689 -.00000447  00000-0 -99810-5 0  9993,2 53970  53.2182  67.4193 0001443  97.4908 262.6248 15.08839027 97656,6917.883,95.438,540.747,538.75,0.0
53970.0,STARLINK-4567,PAYLOAD,2024-07-10 08:19:06,15.0884171,0.0001389,53.219,65.6335,91.1855,268.9297,-9.1018e-06,-4.33e-06,0.0,0 STARLINK-4567,1 53970U 22125G   24192.34659806 -.00000433  00000-0 -91018-5 0  9991,2 53970  53.2190  65.6335 0001389  91.1855 268.9297 15.08841710 97716,6917.875,95.437,540.701,538.779,0.0
53970.0,STARLINK-4567,PAYLOAD,2024-07-10 21:02:11,15.08835017,0.0001501,53.2194,63.2576,100.6006,259.5155,9.3844e-05,1.206e-05,0.0,0 STARLINK-4567,1 53970U 22125G   24192.87652259  .00001206  00000-0  93844-4 0  9999,2 53970  53.2194  63.2576 0001501 100.6006 259.5155 15.08835017 97791,6917.896,95.438,540.799,538.722,0.0
53970.0,STARLINK-4567,PAYLOAD,2024-07-11 00:12:58,15.0881671,0.0001635,53.2197,62.6631,104.8613,255.2561,0.00043954,6.71e-05,0.0,0 STARLINK-4567,1 53970U 22125G   24193.00900668  .00006710  00000-0  43954-3 0  9996,2 53970  53.2197  62.6631 0001635 104.8613 255.2561 15.08816710 97879,6917.952,95.439,540.948,538.685,0.0
53970.0,STARLINK-4567,PAYLOAD,2024-07-12 00:03:44,15.08849768,0.0001472,53.2193,58.1989,92.3653,267.7508,0.00018479,2.655e-05,0.0,0 STARLINK-4567,1 53970U 22125G   24194.00259307  .00002655  00000-0  18479-3 0  9992,2 53970  53.2193  58.1989 0001472  92.3653 267.7508 15.08849768 98021,6917.851,95.437,540.734,538.697,0.0
53970.0,STARLINK-4567,PAYLOAD,2024-07-12 08:00:40,15.08840198,0.0001672,53.219,56.7097,79.7612,280.3568,8.0373e-05,9.91e-06,0.0,0 STARLINK-4567,1 53970U 22125G   24194.33380191  .00000991  00000-0  80373-4 0  9998,2 53970  53.2190  56.7097 0001672  79.7612 280.3568 15.08840198 98078,6917.88,95.438,540.901,538.588,0.0
53970.0,STARLINK-4567,PAYLOAD,2024-07-12 22:19:08,15.0884344,0.0001411,53.2188,54.0347,85.6229,274.4924,7.1471e-05,8.5e-06,0.0,0 STARLINK-4567,1 53970U 22125G   24194.92996098  .00000850  00000-0  71471-4 0  9995,2 53970  53.2188  54.0347 0001411  85.6229 274.4924 15.08843440 98102,6917.87,95.437,540.711,538.759,0.0
53970.0,STARLINK-4567,PAYLOAD,2024-07-13 14:13:00,15.08845515,0.0001283,53.2174,51.0617,103.1201,256.9935,-3.2795e-05,-8.1e-06,0.0,0 STARLINK-4567,1 53970U 22125G   24195.59236190 -.00000810  00000-0 -32795-4 0  9993,2 53970  53.2174  51.0617 0001283 103.1201 256.9935 15.08845515 98200,6917.864,95.437,540.616,538.841,0.0
53970.0,STARLINK-4567,PAYLOAD,2024-07-13 20:34:32,15.08849401,0.0001132,53.2164,49.8725,107.8223,252.2892,5.9067e-06,-1.94e-06,0.0,0 STARLINK-4567,1 53970U 22125G   24195.85731729 -.00000194  00000-0  59067-5 0  9996,2 53970  53.2164  49.8725 0001132 107.8223 252.2892 15.08849401 98302,6917.852,95.437,540.5,538.934,0.0
53970.0,STARLINK-4567,PAYLOAD,2024-07-13 22:09:55,15.08852932,0.0001181,53.2175,49.5756,105.2428,254.8694,4.0788e-05,3.62e-06,0.0,0 STARLINK-4567,1 53970U 22125G   24195.92355438  .00000362  00000-0  40788-4 0  9998,2 53970  53.2175  49.5756 0001181 105.2428 254.8694 15.08852932 98253,6917.841,95.437,540.523,538.889,0.0
53970.0,STARLINK-4567,PAYLOAD,2024-07-14 07:42:14,15.08846732,0.0001176,53.2174,47.7899,98.0086,262.104,-3.9986e-05,-9.24e-06,0.0,0 STARLINK-4567,1 53970U 22125G   24196.32099834 -.00000924  00000-0 -39986-4 0  9992,2 53970  53.2174  47.7899 0001176  98.0086 262.1040 15.08846732 98318,6917.86,95.437,540.538,538.911,0.0
